#dP2021  5 30  0  0  0.00000000      97 __u+U IGS14 FIT  IAC
## 2160      0.00000000   900.00000000 59364 0.0000000000000
+  123   C01C02C03C04C05C06C07C08C09C10C11C12C13C14C16C19C20
+        C21C22C23C24C25C26C27C28C29C30C32C33C34C35C36C37C38
+        C39C40C41C42C43C44C45C46C60E01E02E03E04E05E07E08E09
+        E11E12E13E14E15E18E19E21E24E25E26E27E30E31E33E36G01
+        G02G03G04G05G06G07G08G09G10G12G13G14G15G16G17G18G19
+        G20G21G22G23G24G25G26G27G28G29G30G31G32J01J02J03J07
+        R01R02R03R04R05R07R08R09R11R12R13R14R15R16R17R18R19
+        R20R21R22R24  0  0  0  0  0  0  0  0  0  0  0  0  0
++        14 12  0 14 13  9  9 10  8  8  8  8  9  8  9  7  7
++         7  7  7  7  7  7  7  7  7  7  7  7  7  7  7  7  8
++         8  8  7  8  8  8  7  7 17  4  4  4  4  4  4  4  4
++         4  4  4  5  4  4  4  4  4  4  4  4  4  4  4  5  3
++         3  3  3  3  3  3  3  3  3  4  3  4  4  3  3  3  4
++         3  3  3  3  3  4  3  3  4  3  3  4  4  8  8  8 13
++         7  5  6  6  5  5  5  6  7  5  7  5  5  7  6  6  7
++         7  5  7  6  0  0  0  0  0  0  0  0  0  0  0  0  0
%c M  cc GPS ccc cccc cccc cccc cccc ccccc ccccc ccccc ccccc
%c cc cc ccc ccc cccc cccc cccc cccc ccccc ccccc ccccc ccccc
%f  1.2500000  1.025000000  0.00000000000  0.000000000000000
%f  0.0000000  0.000000000  0.00000000000  0.000000000000000
%i    0    0    0    0      0      0      0      0         0
%i    0    0    0    0      0      0      0      0         0
/* INFORMATION & ANALYSIS CENTER (IAC)            FINAL DATA
/* S/V CLOCKS ARE ALIGNED TO GNSS TIME                      
/* G:C1WC2W R:C1PC2P E:C1XC5X C:C2IC6I J:C1CC2S             
/* PCV:IGS14_2148 OL/AL:FES2004  NONE     YN ORB:CoN CLK:CoN
*  2021 05 30 20 45  0.00000000
PC01 -34373.383780  24454.528456      6.679308   -417.078956
PC02   4466.027648  41929.817972   -471.025730    634.587437
PC03      0.000000      0.000000      0.000000 999999.999999
PC04 -39625.520201  14445.259088   -429.230421 999999.999999
PC05  21914.068480  36056.753061   -225.754648   -112.822652
PC06 -23600.495083  26336.242060  23068.087133    445.381604
PC07 -14001.991109  37768.789147  13607.287392    125.616944
PC08  -7202.831054  20867.350068 -35784.360271   -891.728434
PC09  -8441.577410  26553.209570  31829.913744    484.839343
PC10  -2985.014421  42315.388312      7.212550    -35.936747
PC11 -26588.881000    630.363352   8567.964220    371.286206
PC12 -14542.241489 -10757.375051  21281.475063    862.643516
PC13   5007.333886  28243.838766 -30712.707660    281.141364
PC14 -16134.916478   -800.980159 -22729.719149    875.562892
PC16 -21197.184450  26606.552385  24898.484802   -868.701631
PC19  16836.988637 -10246.559915  19777.440520    854.327689
PC20  13374.496528   9983.396102  22391.502640   -895.293201
PC21  -1673.026831 -25253.142541 -11704.499026   -937.641269
PC22  10674.735990 -25157.292649   5569.638683   -952.724877
PC23  -6119.479775  16141.566421  21932.818165   -921.043325
PC24 -21763.143870 -16646.686361   5343.891049   -871.965597
PC25 -19604.134728    756.792332  19848.896486   -908.887644
PC26 -12240.965763 -22616.895255 -10881.251367    899.648623
PC27   4500.884020  15226.957809 -22971.429655    540.276254
PC28 -15975.834861  15786.840246 -16566.653551    -68.175767
PC29  26704.177591  -8097.205684    451.075146    399.423704
PC30  22099.305507   5281.167204 -16226.216702    468.910008
PC32   1891.137205  25265.316478  11734.899354   -928.373040
PC33 -16795.597064  10316.248269 -19751.571427   -936.677367
PC34 -22553.963750  -4854.758108  15669.333047   -661.556687
PC35  15767.159749 -16301.659399  16273.567900   -256.260701
PC36  19778.569114     54.859505 -19661.107317   -726.810474
PC37  10941.965957  22871.336596  11660.813103   -883.066707
PC38  -4028.899853  25279.697939 -33452.908904    152.123649
PC39 -17577.351161  28060.179832  26026.325157     31.446693
PC40 -10134.010787  40814.673447   3973.408649    166.152108
PC41 -10721.988368  25096.613483  -5772.607652   -945.146720
PC42 -13082.802387 -10740.226142 -22134.765705   -913.621004
PC43 -26821.577674   7657.067037     24.510555   -754.122983
PC44  -4759.963444 -15259.668617  22860.893433    214.606335
PC45   5873.553827 -16163.586875 -21973.781891    454.150738
PC46  22002.119010  15931.209727  -6311.890849    246.857073
PC60   7261.117621  41526.188172  -1518.191481 999999.999999
PE01  12190.819423 -13582.109134 -23303.760910  -1118.893909
PE02 -12127.787450  13696.322370  23265.795224    222.711758
PE03 -21980.073173  19319.265288  -4501.438907   -436.627124
PE04   9626.578645 -24577.617818 -13380.775212   -782.046571
PE05 -21621.974684   2613.490773 -20038.716140   -276.822532
PE07   8665.889827  15440.046687  23735.119327   -543.999226
PE08  -9276.960908  24546.499013  13718.717225   5993.785922
PE09  -8797.616248 -15141.487411 -23851.985555   5650.153324
PE11 -19537.138647 -15068.944354  16325.565274   5914.038207
PE12   2136.713405 -16082.800086  24751.804631   5184.545831
PE13  19237.578616  15094.418752 -16688.412059    417.100523
PE14 -17733.707766  -4660.000153  16504.392767  -1449.192210
PE15  -1993.902023  16029.987156 -24802.628212    811.464421
PE18  15286.134007  13867.642235 -24092.450077  -1586.794445
PE19  22654.650409 -17852.548105   6663.885822    290.020309
PE21  18059.395126   7364.718649 -22267.572111   -667.886211
PE24 -13205.723714 -25416.069586   7498.529264   -928.385267
PE25 -18072.212549  -7586.415850  22186.809293   -535.430042
PE26  29126.235331   4871.676889   2043.899803   1749.958370
PE27  13712.195488  24885.146022  -8286.160232    -43.713235
PE30    497.465509  27351.465073  11283.619609   2903.104269
PE31  -1346.001141 -27657.296631 -10454.332205   -481.699165
PE33  22022.788206  -7522.071807  18298.175624   -469.180008
PE36 -29094.946955  -5271.716811  -1238.238279   -214.255494
PG01  21494.998625  14488.852092  -6839.163839    673.543714
PG02   -294.137300 -16111.442413  21760.607454   -608.516039
PG03  12403.033261  18172.954114  14872.926161   -178.392299
PG04  14419.832344   7811.812562  20913.530546   -198.247767
PG05  -5543.821139 -25796.301565  -2172.412221    -43.491287
PG06  12205.077872 -10180.438828  21349.151291     21.265590
PG07  25224.159709   6151.567497  -6373.610617    165.308856
PG08   5545.693248  14483.521470 -21535.879380    -23.232137
PG09  21460.675624  -2783.333164  15358.836054   -348.529058
PG10 -12275.021145  12287.453936 -19897.461797   -132.519659
PG12 -10118.268511 -20426.174968  13497.215873    -48.260845
PG13   4268.882874 -17698.501471 -19422.373737    138.626596
PG14  13142.901369 -11803.089617 -19834.503540     77.886361
PG15  -7967.623091 -14316.096863 -21229.512840   -145.774749
PG16   -632.495882  26208.508325   1968.488984   -333.517801
PG17  22708.508221 -13631.561387  -1562.691518    450.752754
PG18 -24331.041601  -3417.075746 -10187.226225    348.779658
PG19  19608.599893 -16546.452413   6327.774223      6.938582
PG20 -10401.698966 -24036.683992  -5192.031139    521.661347
PG21  17225.269030  15458.205732 -12747.917959    121.754220
PG22   9909.540555  24034.428771   6127.500952   -600.989259
PG23 -15266.522632   -148.314983 -21756.808007    101.918188
PG24 -18718.131474 -15488.778275 -11432.823586    107.558582
PG25 -15065.933264  -8465.937690  19978.240331    146.927357
PG26  -5108.317665  22961.238382  12005.919263     92.119621
PG27  -5948.415656  19141.331103 -17411.718857   -139.004485
PG28  10511.754904 -17976.106730 -16047.631293    562.766691
PG29 -21215.872766    956.855889  15931.151173   -355.962041
PG30  19977.712831  -4521.100874 -16970.458746   -432.838032
PG31  -9954.524668  12065.519524  21426.565535   -120.279624
PG32 -21079.859541  16002.607378     64.142955     20.014345
PJ01 -25841.993547  31378.632487  -6687.305350   -387.283723
PJ02 -24816.984371  24232.018509  28957.123487     -0.068390
PJ03 -34606.088543  19279.899457  -9680.085057     -6.762694
PJ07 -25392.694980  33664.531152    -15.969901     -0.015718
PR01 -14184.899578  17804.975460 -11519.426825     80.184765
PR02  -6354.592762  22928.629777   9165.089086    480.594717
PR03   4998.074293  13079.158688  21357.916839     36.858531
PR04  13150.257168  -4027.262765  21516.128107     89.113299
PR05  14204.330904 -18867.501333   9681.633489     72.693764
PR07  -5294.235669 -12595.400331 -21507.166767    -42.415938
PR08 -13235.149376   4086.082573 -21355.010207    -59.269015
PR09  -6013.122476 -20444.585918 -13945.893226     -4.515534
PR11 -16223.496767  -8340.813024  17833.693893     -7.950141
PR12  -7205.329411   8734.157454  22882.145620    233.193584
PR13   5722.930927  20136.512218  14562.514677    -55.509097
PR14  15580.820822  19992.127194  -2939.427776     64.814693
PR15  16049.305995   8103.973540 -18075.775642    103.544381
PR16   6306.077212 -10025.411210 -22626.100780    -15.730614
PR17  15411.801792   7491.476916 -18878.125794    428.500228
PR18  25105.514271    427.158927  -4648.295753     78.351025
PR19  22070.356299  -5945.719331  11316.211410   -145.804887
PR20   4187.139080 -10355.729178  22937.699615    -50.035495
PR21 -16503.906281  -7055.491138  18129.168504   -212.882265
PR22 -25200.095625    -66.843057   3581.062901   -115.278904
PR24  -3164.846657  10893.325179 -22837.262090     44.669114
EOF
